*******************************************************************************
JPL/HORIZONS               2570 Porphyro (1980 PG)         2023-Sep-04 11:18:41
Rec #:    2570 (+COV) Soln.date: 2023-Aug-22_23:11:56   # obs: 2977 (1941-2023)
 
IAU76/J2000 helio. ecliptic osc. elements (au, days, deg., period=Julian yrs):
 
  EPOCH=  2457745.5 ! 2016-Dec-23.00 (TDB)         Residual RMS= .23891
   EC= .1077016632940714   QR= 2.467333712125361   TP= 2458258.5647868458
   OM= 324.3646754461872   W=  96.90749639695969   IN= 16.24367842751094
   A= 2.765144358818312    MA= 250.0235824025665   ADIST= 3.062955005511263
   PER= 4.59817            N= .214351911           ANGMOM= .028438507
   DAN= 2.76894            DDN= 2.69812            L= 61.5564311
   B= 16.122549            MOID= 1.54331994        TP= 2018-May-20.0647868458
 
Asteroid physical parameters (km, seconds, rotational period in hours):
   GM= n.a.                RAD= 12.3895            ROTPER= n.a.
   H= 12.34                G= .150                 B-V= n.a.
                           ALBEDO= .038            STYP= n.a.

ASTEROID comments: 
1: soln ref.= JPL#49, OCC=0
2: source=ORB
*******************************************************************************


*******************************************************************************
Ephemeris / API_USER Mon Sep  4 11:18:41 2023 Pasadena, USA      / Horizons
*******************************************************************************
Target body name: 2570 Porphyro (1980 PG)         {source: JPL#49}
Center body name: Solar System Barycenter (0)     {source: DE441}
Center-site name: BODY CENTER
*******************************************************************************
Start time      : A.D. 2023-Aug-12 00:00:00.0000 TDB
Stop  time      : A.D. 2023-Aug-13 00:00:00.0000 TDB
Step-size       : 2880 minutes
*******************************************************************************
Center geodetic : 0.0, 0.0, 0.0                   {E-lon(deg),Lat(deg),Alt(km)}
Center cylindric: 0.0, 0.0, 0.0                   {E-lon(deg),Dxy(km),Dz(km)}
Center radii    : (undefined)
Small perturbers: Yes                             {source: SB441-N16}
Output units    : KM-S
Calendar mode   : Mixed Julian/Gregorian
Output type     : GEOMETRIC cartesian states
Output format   : 2 (position and velocity)
Reference frame : Ecliptic of J2000.0
*******************************************************************************
Initial IAU76/J2000 heliocentric ecliptic osculating elements (au, days, deg.):
  EPOCH=  2457745.5 ! 2016-Dec-23.00 (TDB)         Residual RMS= .23891        
   EC= .1077016632940714   QR= 2.467333712125361   TP= 2458258.5647868458      
   OM= 324.3646754461872   W=  96.90749639695969   IN= 16.24367842751094       
  Equivalent ICRF heliocentric cartesian coordinates (au, au/d):
   X= 1.486276261732178E+00  Y=-2.126143848492466E+00  Z=-1.281872073201386E+00
  VX= 7.785649232584717E-03 VY= 3.986540570939835E-03 VZ= 4.583394501788152E-03
Asteroid physical parameters (km, seconds, rotational period in hours):        
   GM= n.a.                RAD= 12.3895            ROTPER= n.a.                
   H= 12.34                G= .150                 B-V= n.a.                   
                           ALBEDO= .038            STYP= n.a.                  
*******************************************************************************
JDTDB
   X     Y     Z
   VX    VY    VZ
*******************************************************************************
$$SOE
2460168.500000000 = A.D. 2023-Aug-12 00:00:00.0000 TDB 
 X =-2.012038499447032E+08 Y = 3.303392267951495E+08 Z = 4.424784052056597E+07
 VX=-1.679151818008709E+01 VY=-7.629771962901982E+00 VZ=-4.653370793227788E+00
$$EOE
*******************************************************************************
 
TIME

  Barycentric Dynamical Time ("TDB" or T_eph) output was requested. This
continuous coordinate time is equivalent to the relativistic proper time
of a clock at rest in a reference frame co-moving with the solar system
barycenter but outside the system's gravity well. It is the independent
variable in the solar system relativistic equations of motion.

  TDB runs at a uniform rate of one SI second per second and is independent
of irregularities in Earth's rotation.
 
CALENDAR SYSTEM

  Mixed calendar mode was active such that calendar dates after AD 1582-Oct-15
(if any) are in the modern Gregorian system. Dates prior to 1582-Oct-5 (if any)
are in the Julian calendar system, which is automatically extended for dates
prior to its adoption on 45-Jan-1 BC.  The Julian calendar is useful for
matching historical dates. The Gregorian calendar more accurately corresponds
to the Earth's orbital motion and seasons. A "Gregorian-only" calendar mode is
available if such physical events are the primary interest.

REFERENCE FRAME AND COORDINATES

  Ecliptic at the standard reference epoch

    Reference epoch: J2000.0
    X-Y plane: adopted Earth orbital plane at the reference epoch
               Note: IAU76 obliquity of 84381.448 arcseconds wrt ICRF X-Y plane
    X-axis   : ICRF
    Z-axis   : perpendicular to the X-Y plane in the directional (+ or -) sense
               of Earth's north pole at the reference epoch.

  Symbol meaning:

    JDTDB    Julian Day Number, Barycentric Dynamical Time
      X      X-component of position vector (km)
      Y      Y-component of position vector (km)
      Z      Z-component of position vector (km)
      VX     X-component of velocity vector (km/sec)                           
      VY     Y-component of velocity vector (km/sec)                           
      VZ     Z-component of velocity vector (km/sec)                           

ABERRATIONS AND CORRECTIONS

 Geometric state vectors have NO corrections or aberrations applied.

Computations by ...

    Solar System Dynamics Group, Horizons On-Line Ephemeris System
    4800 Oak Grove Drive, Jet Propulsion Laboratory
    Pasadena, CA  91109   USA

    General site: https://ssd.jpl.nasa.gov/
    Mailing list: https://ssd.jpl.nasa.gov/email_list.html
    System news : https://ssd.jpl.nasa.gov/horizons/news.html
    User Guide  : https://ssd.jpl.nasa.gov/horizons/manual.html
    Connect     : browser        https://ssd.jpl.nasa.gov/horizons/app.html#/x
                  API            https://ssd-api.jpl.nasa.gov/doc/horizons.html
                  command-line   telnet ssd.jpl.nasa.gov 6775
                  e-mail/batch   https://ssd.jpl.nasa.gov/ftp/ssd/hrzn_batch.txt
                  scripts        https://ssd.jpl.nasa.gov/ftp/ssd/SCRIPTS
    Author      : Jon.D.Giorgini@jpl.nasa.gov
*******************************************************************************
